NORAD_CAT_ID,OBJECT_NAME,OBJECT_TYPE,EPOCH,MEAN_MOTION,ECCENTRICITY,INCLINATION,RA_OF_ASC_NODE,ARG_OF_PERICENTER,MEAN_ANOMALY,BSTAR,MEAN_MOTION_DOT,MEAN_MOTION_DDOT,TLE_LINE0,TLE_LINE1,TLE_LINE2,SEMIMAJOR_AXIS,PERIOD,APOGEE,PERIGEE,DECAYED
52600.0,STARLINK-4026,PAYLOAD,2024-07-29 21:52:19,15.08843272,0.0001436,53.2173,37.7584,85.6999,274.4157,0.0001959,2.831e-05,0.0,0 STARLINK-4026,1 52600U 22052C   24211.91133505  .00002831  00000-0  19590-3 0  9992,2 52600  53.2173  37.7584 0001436  85.6999 274.4157 15.08843272122926,6917.87,95.437,540.729,538.742,0.0
52600.0,STARLINK-4026,PAYLOAD,2024-07-30 12:10:47,15.08854775,0.000252,53.2169,35.0824,82.655,277.4729,0.00032326,4.862e-05,0.0,0 STARLINK-4026,1 52600U 22052C   24212.50749235  .00004862  00000-0  32326-3 0  9999,2 52600  53.2169  35.0824 0002520  82.6550 277.4729 15.08854775122584,6917.835,95.437,541.444,537.957,0.0
52600.0,STARLINK-4026,PAYLOAD,2024-07-30 18:32:19,15.08853591,0.0002342,53.2171,33.8933,85.4502,274.6758,0.0002615,3.878e-05,0.0,0 STARLINK-4026,1 52600U 22052C   24212.77245107  .00003878  00000-0  26150-3 0  9991,2 52600  53.2171  33.8933 0002342  85.4502 274.6758 15.08853591123053,6917.839,95.437,541.324,538.084,0.0
52600.0,STARLINK-4026,PAYLOAD,2024-07-31 05:40:01,15.08847812,0.0001939,53.2168,31.8079,101.5606,258.5604,7.8041e-05,9.54e-06,0.0,0 STARLINK-4026,1 52600U 22052C   24213.23613054  .00000954  00000-0  78041-4 0  9992,2 52600  53.2168  31.8079 0001939 101.5606 258.5604 15.08847812122693,6917.857,95.437,541.063,538.38,0.0
52600.0,STARLINK-4026,PAYLOAD,2024-07-31 21:33:53,15.08836961,0.0001573,53.2171,28.8351,109.8424,250.2738,-7.4853e-05,-1.479e-05,0.0,0 STARLINK-4026,1 52600U 22052C   24213.89853682 -.00001479  00000-0 -74853-4 0  9999,2 52600  53.2171  28.8351 0001573 109.8424 250.2738 15.08836961122790,6917.89,95.438,540.843,538.666,0.0
52600.0,STARLINK-4026,PAYLOAD,2024-08-01 11:52:21,15.08845146,0.0001833,53.2167,26.1597,108.4001,251.7191,0.00013379,1.842e-05,0.0,0 STARLINK-4026,1 52600U 22052C   24214.49469344  .00001842  00000-0  13379-3 0  9991,2 52600  53.2167  26.1597 0001833 108.4001 251.7191 15.08845146122887,6917.865,95.437,540.998,538.462,0.0
52600.0,STARLINK-4026,PAYLOAD,2024-08-01 21:24:40,15.08858453,0.0001623,53.2178,24.3763,100.3481,259.7694,0.00071181,0.00011064,0.0,0 STARLINK-4026,1 52600U 22052C   24214.89213198  .00011064  00000-0  71181-3 0  9991,2 52600  53.2178  24.3763 0001623 100.3481 259.7694 15.08858453123370,6917.824,95.436,540.812,538.566,0.0
52600.0,STARLINK-4026,PAYLOAD,2024-08-02 14:53:54,15.08849959,0.0002227,53.2168,21.103,125.5659,234.5541,0.00030258,4.532e-05,0.0,0 STARLINK-4026,1 52600U 22052C   24215.62077326  .00004532  00000-0  30258-3 0  9996,2 52600  53.2168  21.1030 0002227 125.5659 234.5541 15.08849959123483,6917.85,95.437,541.256,538.174,0.0
52600.0,STARLINK-4026,PAYLOAD,2024-08-02 21:15:27,15.08840319,0.0001381,53.2167,19.9165,84.6553,275.4597,0.00031264,4.691e-05,0.0,0 STARLINK-4026,1 52600U 22052C   24215.88573821  .00004691  00000-0  31264-3 0  9999,2 52600  53.2167  19.9165 0001381  84.6553 275.4597 15.08840319123097,6917.879,95.438,540.7,538.789,0.0
52600.0,STARLINK-4026,PAYLOAD,2024-08-03 14:44:42,15.08833477,0.0001525,53.2181,16.6474,88.2698,271.8469,7.1932e-05,8.57e-06,0.0,0 STARLINK-4026,1 52600U 22052C   24216.61438162  .00000857  00000-0  71932-4 0  9996,2 52600  53.2181  16.6474 0001525  88.2698 271.8469 15.08833477123635,6917.9,95.438,540.82,538.71,0.0
52600.0,STARLINK-4026,PAYLOAD,2024-08-03 19:30:51,15.08848181,0.0001214,53.2163,15.7513,79.947,280.1659,0.00024421,3.602e-05,0.0,0 STARLINK-4026,1 52600U 22052C   24216.81309555  .00003602  00000-0  24421-3 0  9992,2 52600  53.2163  15.7513 0001214  79.9470 280.1659 15.08848181123664,6917.855,95.437,540.56,538.881,0.0
52600.0,STARLINK-4026,PAYLOAD,2024-08-04 03:27:47,15.08850382,0.0001478,53.2172,14.2679,97.6365,262.4795,0.00030507,4.572e-05,0.0,0 STARLINK-4026,1 52600U 22052C   24217.14429407  .00004572  00000-0  30507-3 0  9997,2 52600  53.2172  14.2679 0001478  97.6365 262.4795 15.08850382123281,6917.849,95.437,540.736,538.691,0.0
52600.0,STARLINK-4026,PAYLOAD,2024-08-04 14:35:29,15.08838884,0.0001789,53.2175,12.1856,88.9887,271.131,0.00016055,2.268e-05,0.0,0 STARLINK-4026,1 52600U 22052C   24217.60798250  .00002268  00000-0  16055-3 0  9995,2 52600  53.2175  12.1856 0001789  88.9887 271.1310 15.08838884123783,6917.884,95.438,540.986,538.511,0.0
52600.0,STARLINK-4026,PAYLOAD,2024-08-04 19:21:38,15.08860036,0.0001435,53.2171,11.2938,93.4368,266.6788,0.00064688,0.00010028,0.0,0 STARLINK-4026,1 52600U 22052C   24217.80669611  .00010028  00000-0  64688-3 0  9993,2 52600  53.2171  11.2938 0001435  93.4368 266.6788 15.08860036123819,6917.819,95.436,540.677,538.691,0.0
52600.0,STARLINK-4026,PAYLOAD,2024-08-05 17:37:03,15.08828408,0.0001862,53.2168,7.1302,79.4453,280.6749,-0.00022495,-3.865e-05,0.0,0 STARLINK-4026,1 52600U 22052C   24218.73406378 -.00003865  00000-0 -22495-3 0  9998,2 52600  53.2168   7.1302 0001862  79.4453 280.6749 15.08828408123525,6917.916,95.438,541.069,538.493,0.0
52600.0,STARLINK-4026,PAYLOAD,2024-08-06 03:09:21,15.08839745,0.000195,53.2169,5.3466,84.74,275.3815,0.00016973,2.414e-05,0.0,0 STARLINK-4026,1 52600U 22052C   24219.13150220  .00002414  00000-0  16973-3 0  9996,2 52600  53.2169   5.3466 0001950  84.7400 275.3815 15.08839745123583,6917.881,95.438,541.095,538.397,0.0
52600.0,STARLINK-4026,PAYLOAD,2024-08-06 14:17:04,15.08829267,0.0001981,53.2183,3.2574,96.961,263.1607,7.6649e-05,9.32e-06,0.0,0 STARLINK-4026,1 52600U 22052C   24219.59518809  .00000932  00000-0  76649-4 0  9997,2 52600  53.2183   3.2574 0001981  96.9610 263.1607 15.08829267124086,6917.913,95.438,541.149,538.408,0.0
52600.0,STARLINK-4026,PAYLOAD,2024-08-06 17:27:50,15.08834214,0.0001543,53.2162,2.6699,88.8638,271.2531,0.00010899,1.447e-05,0.0,0 STARLINK-4026,1 52600U 22052C   24219.72766775  .00001447  00000-0  10899-3 0  9995,2 52600  53.2162   2.6699 0001543  88.8638 271.2531 15.08834214123676,6917.898,95.438,540.831,538.696,0.0
52600.0,STARLINK-4026,PAYLOAD,2024-08-07 15:43:14,15.08848184,0.000164,53.2163,358.5076,85.1755,274.9424,0.00061043,9.442e-05,0.0,0 STARLINK-4026,1 52600U 22052C   24220.65502936  .00009442  00000-0  61043-3 0  9996,2 52600  53.2163 358.5076 0001640  85.1755 274.9424 15.08848184124243,6917.855,95.437,540.855,538.586,0.0
52600.0,STARLINK-4026,PAYLOAD,2024-08-08 13:58:37,15.08850106,0.0001328,53.2174,354.337,117.8256,242.2871,0.00026114,3.872e-05,0.0,0 STARLINK-4026,1 52600U 22052C   24221.58238077  .00003872  00000-0  26114-3 0  9992,2 52600  53.2174 354.3370 0001328 117.8256 242.2871 15.08850106124384,6917.849,95.437,540.633,538.796,0.0
52600.0,STARLINK-4026,PAYLOAD,2024-08-08 15:34:01,15.08842416,0.0001421,53.2174,354.0403,119.9051,240.2082,0.00048034,7.365e-05,0.0,0 STARLINK-4026,1 52600U 22052C   24221.64862499  .00007365  00000-0  48034-3 0  9996,2 52600  53.2174 354.0403 0001421 119.9051 240.2082 15.08842416123968,6917.873,95.437,540.721,538.755,0.0
52600.0,STARLINK-4026,PAYLOAD,2024-08-09 13:49:24,15.08859791,0.0001374,53.2178,349.879,132.6915,227.4193,-0.0005087,-8.379e-05,0.0,0 STARLINK-4026,1 52600U 22052C   24222.57597330 -.00008379  00000-0 -50870-3 0  9997,2 52600  53.2178 349.8790 0001374 132.6915 227.4193 15.08859791124539,6917.82,95.436,540.635,538.734,0.0
52600.0,STARLINK-4026,PAYLOAD,2024-08-09 15:24:48,15.08842039,0.0001258,53.218,349.5879,110.5729,249.5398,-9.8032e-06,-4.44e-06,0.0,0 STARLINK-4026,1 52600U 22052C   24222.64222302 -.00000444  00000-0 -98032-5 0  9998,2 52600  53.2180 349.5879 0001258 110.5729 249.5398 15.08842039124119,6917.874,95.437,540.609,538.869,0.0
52600.0,STARLINK-4026,PAYLOAD,2024-08-10 13:40:12,15.08827716,9.85e-05,53.2183,345.4238,110.7702,249.3396,0.00023947,3.524e-05,0.0,0 STARLINK-4026,1 52600U 22052C   24223.56959066  .00003524  00000-0  23947-3 0  9995,2 52600  53.2183 345.4238 0000985 110.7702 249.3396 15.08827716124688,6917.918,95.438,540.464,539.102,0.0
52600.0,STARLINK-4026,PAYLOAD,2024-08-10 15:15:35,15.08839605,0.0001168,53.2185,345.1275,110.0383,250.0735,2.5154e-05,1.13e-06,0.0,0 STARLINK-4026,1 52600U 22052C   24223.63582620  .00000113  00000-0  25154-4 0  9995,2 52600  53.2185 345.1275 0001168 110.0383 250.0735 15.08839605124697,6917.882,95.438,540.555,538.939,0.0
52600.0,STARLINK-4026,PAYLOAD,2024-08-11 00:47:52,15.08860746,7.86e-05,53.2188,343.3448,133.9978,226.1079,0.0002642,3.922e-05,0.0,0 STARLINK-4026,1 52600U 22052C   24224.03324376  .00003922  00000-0  26420-3 0  9999,2 52600  53.2188 343.3448 0000786 133.9978 226.1079 15.08860746124326,6917.817,95.436,540.226,539.138,0.0
52600.0,STARLINK-4026,PAYLOAD,2024-08-11 08:44:51,15.08812374,0.0001149,53.2191,341.857,98.5147,261.5976,-0.00011898,-2.179e-05,0.0,0 STARLINK-4026,1 52600U 22052C   24224.36448794 -.00002179  00000-0 -11898-3 0  9994,2 52600  53.2191 341.8570 0001149  98.5147 261.5976 15.08812374124375,6917.965,95.439,540.625,539.035,0.0
52600.0,STARLINK-4026,PAYLOAD,2024-08-11 18:17:08,15.0883981,0.0001104,53.2186,340.0681,96.9953,263.1165,0.00010483,1.381e-05,0.0,0 STARLINK-4026,1 52600U 22052C   24224.76190731  .00001381  00000-0  10483-3 0  9994,2 52600  53.2186 340.0681 0001104  96.9953 263.1165 15.08839810124430,6917.881,95.438,540.51,538.982,0.0
52600.0,STARLINK-4026,PAYLOAD,2024-08-12 00:38:40,15.08852038,6.26e-05,53.2201,338.881,96.9525,263.1538,0.00022064,3.227e-05,0.0,0 STARLINK-4026,1 52600U 22052C   24225.02685497  .00003227  00000-0  22064-3 0  9991,2 52600  53.2201 338.8810 0000626  96.9525 263.1538 15.08852038124475,6917.844,95.437,540.142,539.276,0.0
52600.0,STARLINK-4026,PAYLOAD,2024-08-12 08:35:38,15.08819352,0.0001153,53.2172,337.3963,96.276,263.8363,-0.00025901,-4.405e-05,0.0,0 STARLINK-4026,1 52600U 22052C   24225.35807882 -.00004405  00000-0 -25901-3 0  9995,2 52600  53.2172 337.3963 0001153  96.2760 263.8363 15.08819352124526,6917.944,95.439,540.606,539.011,0.0
